NORAD_CAT_ID,OBJECT_NAME,OBJECT_TYPE,EPOCH,MEAN_MOTION,ECCENTRICITY,INCLINATION,RA_OF_ASC_NODE,ARG_OF_PERICENTER,MEAN_ANOMALY,BSTAR,MEAN_MOTION_DOT,MEAN_MOTION_DDOT,TLE_LINE0,TLE_LINE1,TLE_LINE2,SEMIMAJOR_AXIS,PERIOD,APOGEE,PERIGEE,DECAYED
53835.0,STARLINK-4783,PAYLOAD,2022-12-17 00:12:49,15.08847515,0.0001747,53.216,195.1997,41.7219,318.3907,-0.00022271,-3.832e-05,0.0,0 STARLINK-4783,1 53835U 22114T   22351.00891099 -.00003832  00000-0 -22271-3 0  9998,2 53835  53.2160 195.1997 0001747  41.7219 318.3907 15.08847515 14355,6917.857,95.437,540.931,538.514,0.0
53835.0,STARLINK-4783,PAYLOAD,2022-12-17 17:42:04,15.08834157,0.0001661,53.2158,191.9286,48.2189,311.8945,5.931e-05,6.56e-06,0.0,0 STARLINK-4783,1 53835U 22114T   22351.73755507  .00000656  00000-0  59310-4 0  9995,2 53835  53.2158 191.9286 0001661  48.2189 311.8945 15.08834157 14460,6917.898,95.438,540.9119999999998,538.614,0.0
53835.0,STARLINK-4783,PAYLOAD,2022-12-17 19:17:27,15.08834843,0.0001684,53.2158,191.6312,47.197,312.9163,6.2383e-05,7.05e-06,0.0,0 STARLINK-4783,1 53835U 22114T   22351.80379515  .00000705  00000-0  62383-4 0  9993,2 53835  53.2158 191.6312 0001684  47.1970 312.9163 15.08834843 15016,6917.896,95.438,540.9259999999998,538.596,0.0
53835.0,STARLINK-4783,PAYLOAD,2022-12-18 12:46:42,15.08838892,0.0001617,53.2161,188.3599,46.5086,313.6040000000001,8.2415e-05,1.024e-05,0.0,0 STARLINK-4783,1 53835U 22114T   22352.53243308  .00001024  00000-0  82415-4 0  9997,2 53835  53.2161 188.3599 0001617  46.5086 313.6040 15.08838892 15129,6917.884,95.438,540.867,538.63,0.0
53835.0,STARLINK-4783,PAYLOAD,2022-12-18 19:08:15,15.08831531,0.0001589,53.2166,187.1704,45.8274,314.2848,9.125e-05,1.164e-05,0.0,0 STARLINK-4783,1 53835U 22114T   22352.79739814  .00001164  00000-0  91250-4 0  9999,2 53835  53.2166 187.1704 0001589  45.8274 314.2848 15.08831531 15168,6917.906,95.438,540.871,538.672,0.0
53835.0,STARLINK-4783,PAYLOAD,2022-12-19 06:15:57,15.08828479,0.0001649,53.2162,185.0891,47.1633,312.9497,3.7169e-05,3.03e-06,0.0,0 STARLINK-4783,1 53835U 22114T   22353.26108551  .00000303  00000-0  37169-4 0  9993,2 53835  53.2162 185.0891 0001649  47.1633 312.9497 15.08828479 14698,6917.916,95.438,540.9209999999998,538.64,0.0
53835.0,STARLINK-4783,PAYLOAD,2022-12-19 12:37:30,15.08829786,0.0001732,53.2163,183.9006,45.7155,314.3979,3.9749e-05,3.44e-06,0.0,0 STARLINK-4783,1 53835U 22114T   22353.52604652  .00000344  00000-0  39749-4 0  9996,2 53835  53.2163 183.9006 0001732  45.7155 314.3979 15.08829786 15278,6917.9119999999975,95.438,540.975,538.578,0.0
53835.0,STARLINK-4783,PAYLOAD,2022-12-19 18:59:02,15.08832577,0.0001664,53.2161,182.7105,47.6165,312.4968,1.1542e-05,-1.04e-06,0.0,0 STARLINK-4783,1 53835U 22114T   22353.79100682 -.00000104  00000-0  11542-4 0  9995,2 53835  53.2161 182.7105 0001664  47.6165 312.4968 15.08832577 15313,6917.903,95.438,540.919,538.617,0.0
53835.0,STARLINK-4783,PAYLOAD,2022-12-20 12:28:17,15.088358,0.0001746,53.2164,179.4395,46.5769,313.5369,7.6924e-05,9.36e-06,0.0,0 STARLINK-4783,1 53835U 22114T   22354.51964584  .00000936  00000-0  76924-4 0  9992,2 53835  53.2164 179.4395 0001746  46.5769 313.5369 15.08835800 15420,6917.893,95.438,540.966,538.55,0.0
53835.0,STARLINK-4783,PAYLOAD,2022-12-21 12:19:04,15.08841348,0.0001859,53.2164,174.9791,48.3159,311.7992,0.00016057,2.268e-05,0.0,0 STARLINK-4783,1 53835U 22114T   22355.51324225  .00002268  00000-0  16057-3 0  9995,2 53835  53.2164 174.9791 0001859  48.3159 311.7992 15.08841348 15031,6917.876,95.437,541.0269999999998,538.455,0.0
53835.0,STARLINK-4783,PAYLOAD,2022-12-21 18:40:36,15.08844834,0.0001859,53.2165,173.7895,49.6401,310.4753,0.00016567,2.35e-05,0.0,0 STARLINK-4783,1 53835U 22114T   22355.77819983  .00002350  00000-0  16567-3 0  9991,2 53835  53.2165 173.7895 0001859  49.6401 310.4753 15.08844834 15616,6917.866,95.437,541.0169999999998,538.445,0.0
53835.0,STARLINK-4783,PAYLOAD,2022-12-22 16:56:00,15.08840911,0.0001884,53.2167,169.6264,50.423,309.6928,5.535100000000001e-05,5.93e-06,0.0,0 STARLINK-4783,1 53835U 22114T   22356.70556407  .00000593  00000-0  55351-4 0  9996,2 53835  53.2167 169.6264 0001884  50.4230 309.6928 15.08840911 15212,6917.878000000002,95.437,541.0459999999998,538.439,0.0
53835.0,STARLINK-4783,PAYLOAD,2022-12-23 12:00:37,15.08852609,0.0001947,53.2164,166.0571,49.9297,310.1866,-0.00010139,-1.902e-05,0.0,0 STARLINK-4783,1 53835U 22114T   22357.50043886 -.00001902  00000-0 -10139-3 0  9998,2 53835  53.2164 166.0571 0001947  49.9297 310.1866 15.08852609 15874,6917.842,95.437,541.054,538.36,0.0
53835.0,STARLINK-4783,PAYLOAD,2022-12-23 15:11:24,15.08845803,0.000184,53.2162,165.4624,48.5656,311.5494,4.1749e-05,3.76e-06,0.0,0 STARLINK-4783,1 53835U 22114T   22357.63291865  .00000376  00000-0  41749-4 0  9998,2 53835  53.2162 165.4624 0001840  48.5656 311.5494 15.08845803 15892,6917.863,95.437,541.001,538.455,0.0
53835.0,STARLINK-4783,PAYLOAD,2022-12-23 18:22:10,15.08847701,0.0001885,53.2166,164.8681,48.5093,311.606,3.1308e-05,2.1e-06,0.0,0 STARLINK-4783,1 53835U 22114T   22357.76539714  .00000210  00000-0  31308-4 0  9997,2 53835  53.2166 164.8681 0001885  48.5093 311.6060 15.08847701 15378,6917.857,95.437,541.026,538.418,0.0
53835.0,STARLINK-4783,PAYLOAD,2022-12-24 03:54:28,15.08849495,0.0001912,53.2167,163.0836,48.7414,311.3743,7.5611e-05,9.16e-06,0.0,0 STARLINK-4783,1 53835U 22114T   22358.16283260  .00000916  00000-0  75611-4 0  9992,2 53835  53.2167 163.0836 0001912  48.7414 311.3743 15.08849495 15975,6917.851,95.437,541.039,538.394,0.0
53835.0,STARLINK-4783,PAYLOAD,2022-12-24 18:12:57,15.08836674,0.0001865,53.2178,160.4077,54.5936,305.523,3.7281e-05,3.05e-06,0.0,0 STARLINK-4783,1 53835U 22114T   22358.75900063  .00000305  00000-0  37281-4 0  9997,2 53835  53.2178 160.4077 0001865  54.5936 305.5230 15.08836674 15528,6917.891,95.438,541.0459999999998,538.465,0.0
53835.0,STARLINK-4783,PAYLOAD,2022-12-25 06:56:02,15.08843681,0.0001853,53.217,158.0289,48.5925,311.5226,5.8094e-05,6.37e-06,0.0,0 STARLINK-4783,1 53835U 22114T   22359.28891562  .00000637  00000-0  58094-4 0  9992,2 53835  53.2170 158.0289 0001853  48.5925 311.5226 15.08843681 16143,6917.869000000002,95.437,541.016,538.452,0.0
53835.0,STARLINK-4783,PAYLOAD,2022-12-25 19:39:08,15.08831815,0.0001854,53.2159,155.6489,40.0759,320.0370000000001,-8.765200000000001e-05,-1.683e-05,0.0,0 STARLINK-4783,1 53835U 22114T   22359.81884821 -.00001683  00000-0 -87652-4 0  9997,2 53835  53.2159 155.6489 0001854  40.0759 320.0370 15.08831815 15687,6917.905,95.438,541.053,538.488,0.0
53835.0,STARLINK-4783,PAYLOAD,2022-12-26 03:36:03,15.08839945,0.0001419999999999,53.2165,154.1629,58.7894,301.3238,-0.00010593,-1.973e-05,0.0,0 STARLINK-4783,1 53835U 22114T   22360.15004307 -.00001973  00000-0 -10593-3 0  9990,2 53835  53.2165 154.1629 0001420  58.7894 301.3238 15.08839945 15732,6917.880999999999,95.438,540.7280000000002,538.763,0.0
53835.0,STARLINK-4783,PAYLOAD,2022-12-27 09:48:22,15.08850702,0.000188,53.2175,148.5123,44.9295,315.1849,6.4289e-05,7.35e-06,0.0,0 STARLINK-4783,1 53835U 22114T   22361.40859386  .00000735  00000-0  64289-4 0  9999,2 53835  53.2175 148.5123 0001880  44.9295 315.1849 15.08850702 15927,6917.848000000001,95.437,541.013,538.4119999999998,0.0
53835.0,STARLINK-4783,PAYLOAD,2022-12-27 19:20:41,15.08845623,0.0001791,53.2166,146.7293,45.0504,315.0633,0.00017092,2.434e-05,0.0,0 STARLINK-4783,1 53835U 22114T   22361.80603307  .00002434  00000-0  17092-3 0  9990,2 53835  53.2166 146.7293 0001791  45.0504 315.0633 15.08845623 16524,6917.863,95.437,540.967,538.489,0.0
53835.0,STARLINK-4783,PAYLOAD,2022-12-28 12:49:56,15.08837186,0.0001971,53.2161,143.4575,47.9075,312.2084,4.0567e-05,3.57e-06,0.0,0 STARLINK-4783,1 53835U 22114T   22362.53468313  .00000357  00000-0  40567-4 0  9993,2 53835  53.2161 143.4575 0001971  47.9075 312.2084 15.08837186 16636,6917.889,95.438,541.118,538.39,0.0
53835.0,STARLINK-4783,PAYLOAD,2022-12-29 03:08:25,15.0882984,0.0001940999999999,53.2165,140.7815,47.1302,312.9853,-9.6435e-05,-1.822e-05,0.0,0 STARLINK-4783,1 53835U 22114T   22363.13085389 -.00001822  00000-0 -96435-4 0  9993,2 53835  53.2165 140.7815 0001941  47.1302 312.9853 15.08829840 16188,6917.911,95.438,541.119,538.434,0.0
53835.0,STARLINK-4783,PAYLOAD,2022-12-29 09:29:58,15.08830946,0.0001851,53.2175,139.593,33.7971,326.3139,-0.0001066999999999,-1.985e-05,0.0,0 STARLINK-4783,1 53835U 22114T   22363.39581333 -.00001985  00000-0 -10670-3 0  9997,2 53835  53.2175 139.5930 0001851  33.7971 326.3139 15.08830946 16765,6917.908,95.438,541.054,538.493,0.0
53835.0,STARLINK-4783,PAYLOAD,2022-12-29 19:02:16,15.08845491,0.0001966,53.2171,137.8088,44.9333,315.1818,-4.6057e-05,-1.021e-05,0.0,0 STARLINK-4783,1 53835U 22114T   22363.79324306 -.00001021  00000-0 -46057-4 0  9996,2 53835  53.2171 137.8088 0001966  44.9333 315.1818 15.08845491 16287,6917.864000000001,95.437,541.089,538.369,0.0
53835.0,STARLINK-4783,PAYLOAD,2022-12-30 09:20:44,15.08837799,0.0001966,53.2166,135.1325,42.8413,317.2732,0.00021703,3.167e-05,0.0,0 STARLINK-4783,1 53835U 22114T   22364.38939887  .00003167  00000-0  21703-3 0  9999,2 53835  53.2166 135.1325 0001966  42.8413 317.2732 15.08837799 16912,6917.887,95.438,541.112,538.3919999999998,0.0
53835.0,STARLINK-4783,PAYLOAD,2022-12-31 01:14:34,15.08853576,0.0001934,53.2171,132.1588,41.7676,318.3464,0.00032517,4.893e-05,0.0,0 STARLINK-4783,1 53835U 22114T   22365.05179188  .00004893  00000-0  32517-3 0  9996,2 53835  53.2171 132.1588 0001934  41.7676 318.3464 15.08853576 16476,6917.839,95.437,541.0419999999998,538.366,0.0
53835.0,STARLINK-4783,PAYLOAD,2022-12-31 09:11:30,15.08853788,0.0002041999999999,53.2173,130.6722,44.9963,315.1194,0.00026425,3.921e-05,0.0,0 STARLINK-4783,1 53835U 22114T   22365.38299523  .00003921  00000-0  26425-3 0  9990,2 53835  53.2173 130.6722 0002042  44.9963 315.1194 15.08853788 17062,6917.8380000000025,95.437,541.116,538.2909999999998,0.0
